{
  "norad_id": 66101,
  "name": "STARLINK-35595",
  "history": [
    {
      "epoch": "2026-03-28T04:27:52.933248Z",
      "apogee_km": 475.94718417521926,
      "perigee_km": 474.3701037816272,
      "latitude_deg": -1.1892082409105282e-05,
      "longitude_deg": 125.57694142751929,
      "height_km": 476.12282951012435,
      "semi_major_axis_km": 6853.295643978423,
      "eccentricity": 0.00011506,
      "inclination_deg": 53.161,
      "raan_deg": 18.1576,
      "arg_perigee_deg": 94.7886,
      "mean_anomaly_deg": 265.3246,
      "mean_motion_rev_day": 15.30218898
    },
    {
      "epoch": "2026-03-29T03:58:41.617344Z",
      "apogee_km": 475.99359599437776,
      "perigee_km": 474.3597660128262,
      "latitude_deg": -2.9389026304909876e-05,
      "longitude_deg": 127.35801166791721,
      "height_km": 475.785184224299,
      "semi_major_axis_km": 6853.313681003601,
      "eccentricity": 0.0001192,
      "inclination_deg": 53.1608,
      "raan_deg": 13.6072,
      "arg_perigee_deg": 69.2156,
      "mean_anomaly_deg": 290.8972,
      "mean_motion_rev_day": 15.30212857
    },
    {
      "epoch": "2026-03-30T00:21:22.461120Z",
      "apogee_km": 475.7139435841318,
      "perigee_km": 474.58726310214206,
      "latitude_deg": -2.5944511519875862e-05,
      "longitude_deg": 176.90793705321747,
      "height_km": 476.11398888352875,
      "semi_major_axis_km": 6853.287603343137,
      "eccentricity": 8.22e-05,
      "inclination_deg": 53.1603,
      "raan_deg": 9.6642,
      "arg_perigee_deg": 96.5909,
      "mean_anomaly_deg": 263.5185,
      "mean_motion_rev_day": 15.30221591
    },
    {
      "epoch": "2026-03-30T00:21:22.461984Z",
      "apogee_km": 475.7139435841318,
      "perigee_km": 474.58726310214206,
      "latitude_deg": -2.5930656149642202e-05,
      "longitude_deg": 176.9079334536674,
      "height_km": 476.1139888815652,
      "semi_major_axis_km": 6853.287603343137,
      "eccentricity": 8.22e-05,
      "inclination_deg": 53.1603,
      "raan_deg": 9.6642,
      "arg_perigee_deg": 96.5909,
      "mean_anomaly_deg": 263.5185,
      "mean_motion_rev_day": 15.30221591
    },
    {
      "epoch": "2026-03-30T11:19:45.166656Z",
      "apogee_km": 475.8661997927129,
      "perigee_km": 474.5493981230411,
      "latitude_deg": 2.3135745318686943e-05,
      "longitude_deg": 9.738423728538494,
      "height_km": 476.07881598601364,
      "semi_major_axis_km": 6853.344798957877,
      "eccentricity": 9.607e-05,
      "inclination_deg": 53.1605,
      "raan_deg": 7.5399,
      "arg_perigee_deg": 87.6037,
      "mean_anomaly_deg": 272.5074,
      "mean_motion_rev_day": 15.30202435
    },
    {
      "epoch": "2026-03-30T19:10:01.047936Z",
      "apogee_km": 475.95329814438264,
      "perigee_km": 474.40527106201625,
      "latitude_deg": 2.621486852239782e-05,
      "longitude_deg": -109.66613034175754,
      "height_km": 476.1958719636874,
      "semi_major_axis_km": 6853.316284603199,
      "eccentricity": 0.00011294,
      "inclination_deg": 53.1612,
      "raan_deg": 6.0234,
      "arg_perigee_deg": 98.7822,
      "mean_anomaly_deg": 261.3307,
      "mean_motion_rev_day": 15.30211985
    },
    {
      "epoch": "2026-03-31T18:40:49.711296Z",
      "apogee_km": 475.8487101205974,
      "perigee_km": 474.5931749455249,
      "latitude_deg": 3.7945689129008113e-05,
      "longitude_deg": -107.884850129676,
      "height_km": 476.1544385372703,
      "semi_major_axis_km": 6853.357942533061,
      "eccentricity": 9.16e-05,
      "inclination_deg": 53.1598,
      "raan_deg": 1.4731,
      "arg_perigee_deg": 93.1934,
      "mean_anomaly_deg": 266.9172,
      "mean_motion_rev_day": 15.30198033
    },
    {
      "epoch": "2026-04-01T00:57:02.275488Z",
      "apogee_km": 475.84870869813676,
      "perigee_km": 474.46338404174367,
      "latitude_deg": -1.0657286527211845e-05,
      "longitude_deg": 156.59315703263832,
      "height_km": 476.1965440707562,
      "semi_major_axis_km": 6853.29304636994,
      "eccentricity": 0.00010107,
      "inclination_deg": 53.1606,
      "raan_deg": 0.261,
      "arg_perigee_deg": 101.8275,
      "mean_anomaly_deg": 258.2839,
      "mean_motion_rev_day": 15.30219768
    },
    {
      "epoch": "2026-04-02T17:42:22.521888Z",
      "apogee_km": 475.6905688461111,
      "perigee_km": 474.2514161676836,
      "latitude_deg": 7.541874154752398e-05,
      "longitude_deg": -104.30601114072739,
      "height_km": 475.8595851107377,
      "semi_major_axis_km": 6853.107992506897,
      "eccentricity": 0.000105,
      "inclination_deg": 53.16,
      "raan_deg": 352.3699,
      "arg_perigee_deg": 89.2195,
      "mean_anomaly_deg": 270.8927,
      "mean_motion_rev_day": 15.30281749
    },
    {
      "epoch": "2026-04-02T22:24:32.310720Z",
      "apogee_km": 476.1779128331955,
      "perigee_km": 474.41671728291203,
      "latitude_deg": 3.9932135160056876e-05,
      "longitude_deg": -175.94925805458226,
      "height_km": 475.5131615010764,
      "semi_major_axis_km": 6853.4343150580535,
      "eccentricity": 0.00012849,
      "inclination_deg": 53.1601,
      "raan_deg": 351.4606,
      "arg_perigee_deg": 39.1551,
      "mean_anomaly_deg": 320.9543,
      "mean_motion_rev_day": 15.30172455
    },
    {
      "epoch": "2026-04-03T17:13:12.910656Z",
      "apogee_km": 476.10987393725463,
      "perigee_km": 474.43627119753273,
      "latitude_deg": 5.300398581098406e-05,
      "longitude_deg": -102.53146644932599,
      "height_km": 476.2857974355331,
      "semi_major_axis_km": 6853.410072567393,
      "eccentricity": 0.0001221,
      "inclination_deg": 53.1601,
      "raan_deg": 347.8201,
      "arg_perigee_deg": 97.8696,
      "mean_anomaly_deg": 262.2444,
      "mean_motion_rev_day": 15.30180574
    },
    {
      "epoch": "2026-04-04T02:37:32.295648Z",
      "apogee_km": 475.77597352674456,
      "perigee_km": 474.65037929377013,
      "latitude_deg": 2.3004047282582254e-05,
      "longitude_deg": 114.18087484891521,
      "height_km": 476.1408185008643,
      "semi_major_axis_km": 6853.350176410257,
      "eccentricity": 8.212e-05,
      "inclination_deg": 53.1606,
      "raan_deg": 345.9995,
      "arg_perigee_deg": 92.9438,
      "mean_anomaly_deg": 267.1657,
      "mean_motion_rev_day": 15.30200634
    },
    {
      "epoch": "2026-04-05T02:08:19.774464Z",
      "apogee_km": 475.8621149906103,
      "perigee_km": 474.6541355658301,
      "latitude_deg": -9.52111368324827e-06,
      "longitude_deg": 115.96826886970186,
      "height_km": 476.52339726895764,
      "semi_major_axis_km": 6853.39512527822,
      "eccentricity": 8.813e-05,
      "inclination_deg": 53.1612,
      "raan_deg": 341.4504,
      "arg_perigee_deg": 127.337,
      "mean_anomaly_deg": 232.7711,
      "mean_motion_rev_day": 15.3018558
    },
    {
      "epoch": "2026-04-05T20:56:57.967296Z",
      "apogee_km": 475.8588414901469,
      "perigee_km": 474.4717331071979,
      "latitude_deg": -4.97266341752929e-05,
      "longitude_deg": -170.60532355316886,
      "height_km": 476.46388067367536,
      "semi_major_axis_km": 6853.302287298672,
      "eccentricity": 0.0001012,
      "inclination_deg": 53.1616,
      "raan_deg": 337.8085,
      "arg_perigee_deg": 125.1959,
      "mean_anomaly_deg": 234.9136,
      "mean_motion_rev_day": 15.30216673
    },
    {
      "epoch": "2026-04-06T01:39:07.695648Z",
      "apogee_km": 475.8994838077706,
      "perigee_km": 474.6028227691695,
      "latitude_deg": 1.1668463273337354e-06,
      "longitude_deg": 117.75144604235102,
      "height_km": 476.3823751004678,
      "semi_major_axis_km": 6853.38815328847,
      "eccentricity": 9.46e-05,
      "inclination_deg": 53.1613,
      "raan_deg": 336.8989,
      "arg_perigee_deg": 111.0147,
      "mean_anomaly_deg": 249.0955,
      "mean_motion_rev_day": 15.30187915
    },
    {
      "epoch": "2026-04-07T09:00:11.594016Z",
      "apogee_km": 475.75607968616987,
      "perigee_km": 474.5707328479011,
      "latitude_deg": -5.8973283555982676e-05,
      "longitude_deg": 0.12941140442310364,
      "height_km": 476.1848822790168,
      "semi_major_axis_km": 6853.300406267035,
      "eccentricity": 8.648e-05,
      "inclination_deg": 53.1615,
      "raan_deg": 330.8307,
      "arg_perigee_deg": 101.9441,
      "mean_anomaly_deg": 258.1656,
      "mean_motion_rev_day": 15.30217303
    },
    {
      "epoch": "2026-04-08T14:47:12.513984Z",
      "apogee_km": 476.06598547073554,
      "perigee_km": 474.329213416544,
      "latitude_deg": -1.858761935276296e-05,
      "longitude_deg": -93.60976397512252,
      "height_km": 475.96453228985945,
      "semi_major_axis_km": 6853.3345994436395,
      "eccentricity": 0.00012671,
      "inclination_deg": 53.1609,
      "raan_deg": 325.0685,
      "arg_perigee_deg": 81.3055,
      "mean_anomaly_deg": 278.8089,
      "mean_motion_rev_day": 15.30205851
    },
    {
      "epoch": "2026-04-09T19:00:10.014912Z",
      "apogee_km": 475.78158889151746,
      "perigee_km": 474.60418681678493,
      "latitude_deg": 8.119660144556035e-06,
      "longitude_deg": -163.46962358027233,
      "height_km": 476.1364928622056,
      "semi_major_axis_km": 6853.329887854151,
      "eccentricity": 8.59e-05,
      "inclination_deg": 53.1612,
      "raan_deg": 319.607,
      "arg_perigee_deg": 94.3688,
      "mean_anomaly_deg": 265.7411,
      "mean_motion_rev_day": 15.30207429
    },
    {
      "epoch": "2026-04-09T23:42:19.561824Z",
      "apogee_km": 475.73999744679895,
      "perigee_km": 474.68170347173054,
      "latitude_deg": -2.580239771815114e-06,
      "longitude_deg": 124.88885802644393,
      "height_km": 476.07761957700507,
      "semi_major_axis_km": 6853.347850459265,
      "eccentricity": 7.721e-05,
      "inclination_deg": 53.1604,
      "raan_deg": 318.6984,
      "arg_perigee_deg": 86.531,
      "mean_anomaly_deg": 273.5779,
      "mean_motion_rev_day": 15.30201413
    }
  ]
}